{"type": "FeatureCollection", "features": [ {"type": "Feature", "properties": {"norad_id": 33779, "name": "COSMOS 2251 DEB", "group": "cosmos-2251-debris", "lat": -48.77969222628078, "lon": 152.4730739040009, "alt_km": 669.0053406334337, "timestamp": "2025-12-12T07:43:20.908094+00:00", "meta": {"OBJECT_NAME": "COSMOS 2251 DEB", "OBJECT_ID": "1993-036U", "EPOCH": "2025-12-11T20:48:57.053664", "MEAN_MOTION": 14.70416565, "ECCENTRICITY": 0.00170553, "INCLINATION": 74.045, "RA_OF_ASC_NODE": 172.414, "ARG_OF_PERICENTER": 205.9917, "MEAN_ANOMALY": 217.8136, "EPHEMERIS_TYPE": 0, "CLASSIFICATION_TYPE": "U", "NORAD_CAT_ID": 33779, "ELEMENT_SET_NO": 999, "REV_AT_EPOCH": 88515, "BSTAR": 0.0029068323, "MEAN_MOTION_DOT": 0.00017654, "MEAN_MOTION_DDOT": 0}, "tle": {"line1": "1 33779U 93036U   25345.86732701  .00017654  00000+0  29068-2 0  9992", "line2": "2 33779  74.0450 172.4140 0017055 205.9917 217.8136 14.70416565885155"}}, "geometry": {"type": "Point", "coordinates": [152.4730739040009, -48.77969222628078]}}, {"type": "Feature", "properties": {"norad_id": 33782, "name": "COSMOS 2251 DEB", "group": "cosmos-2251-debris", "lat": 61.023773394496835, "lon": 67.1892739263856, "alt_km": 760.5135630248178, "timestamp": "2025-12-12T07:43:20.908104+00:00", "meta": {"OBJECT_NAME": "COSMOS 2251 DEB", "OBJECT_ID": "1993-036X", "EPOCH": "2025-12-11T21:27:26.997408", "MEAN_MOTION": 14.40444727, "ECCENTRICITY": 0.00207351, "INCLINATION": 74.0338, "RA_OF_ASC_NODE": 279.1106, "ARG_OF_PERICENTER": 343.9072, "MEAN_ANOMALY": 73.3448, "EPHEMERIS_TYPE": 0, "CLASSIFICATION_TYPE": "U", "NORAD_CAT_ID": 33782, "ELEMENT_SET_NO": 999, "REV_AT_EPOCH": 88114, "BSTAR": 0.00072723339, "MEAN_MOTION_DOT": 2.291e-05, "MEAN_MOTION_DDOT": 0}, "tle": {"line1": "1 33782U 93036X   25345.89406247  .00002291  00000+0  72723-3 0  9990", "line2": "2 33782  74.0338 279.1106 0020735 343.9072  73.3448 14.40444727881149"}}, "geometry": {"type": "Point", "coordinates": [67.1892739263856, 61.023773394496835]}}, {"type": "Feature", "properties": {"norad_id": 33785, "name": "COSMOS 2251 DEB", "group": "cosmos-2251-debris", "lat": -70.43583447372734, "lon": 6.211535685073782, "alt_km": 663.474873474941, "timestamp": "2025-12-12T07:43:20.908115+00:00", "meta": {"OBJECT_NAME": "COSMOS 2251 DEB", "OBJECT_ID": "1993-036AA", "EPOCH": "2025-12-11T16:28:47.430912", "MEAN_MOTION": 14.70451506, "ECCENTRICITY": 0.00221986, "INCLINATION": 73.8671, "RA_OF_ASC_NODE": 61.9922, "ARG_OF_PERICENTER": 1.6751, "MEAN_ANOMALY": 159.1199, "EPHEMERIS_TYPE": 0, "CLASSIFICATION_TYPE": "U", "NORAD_CAT_ID": 33785, "ELEMENT_SET_NO": 999, "REV_AT_EPOCH": 88491, "BSTAR": 0.003133433, "MEAN_MOTION_DOT": 0.00019081, "MEAN_MOTION_DDOT": 0}, "tle": {"line1": "1 33785U 93036AA  25345.68666008  .00019081  00000+0  31334-2 0  9990", "line2": "2 33785  73.8671  61.9922 0022198   1.6751 159.1199 14.70451506884919"}}, "geometry": {"type": "Point", "coordinates": [6.211535685073782, -70.43583447372734]}}, {"type": "Feature", "properties": {"norad_id": 33789, "name": "COSMOS 2251 DEB", "group": "cosmos-2251-debris", "lat": -41.19656956012567, "lon": -77.40222431675951, "alt_km": 772.8167698005218, "timestamp": "2025-12-12T07:43:20.908126+00:00", "meta": {"OBJECT_NAME": "COSMOS 2251 DEB", "OBJECT_ID": "1993-036AE", "EPOCH": "2025-12-12T00:18:04.281984", "MEAN_MOTION": 13.8879373, "ECCENTRICITY": 0.02402188, "INCLINATION": 74.0648, "RA_OF_ASC_NODE": 88.6401, "ARG_OF_PERICENTER": 204.436, "MEAN_ANOMALY": 272.417, "EPHEMERIS_TYPE": 0, "CLASSIFICATION_TYPE": "U", "NORAD_CAT_ID": 33789, "ELEMENT_SET_NO": 999, "REV_AT_EPOCH": 85085, "BSTAR": 0.0012400772, "MEAN_MOTION_DOT": 1.862e-05, "MEAN_MOTION_DDOT": 0}, "tle": {"line1": "1 33789U 93036AE  25346.01254956  .00001862  00000+0  12401-2 0  9999", "line2": "2 33789  74.0648  88.6401 0240218 204.4360 272.4170 13.88793730850852"}}, "geometry": {"type": "Point", "coordinates": [-77.40222431675951, -41.19656956012567]}}, {"type": "Feature", "properties": {"norad_id": 33791, "name": "COSMOS 2251 DEB", "group": "cosmos-2251-debris", "lat": 13.899036575627743, "lon": 42.37606369017715, "alt_km": 765.2437193041505, "timestamp": "2025-12-12T07:43:20.908141+00:00", "meta": {"OBJECT_NAME": "COSMOS 2251 DEB", "OBJECT_ID": "1993-036AG", "EPOCH": "2025-12-11T12:10:20.275968", "MEAN_MOTION": 14.43114527, "ECCENTRICITY": 0.0030544, "INCLINATION": 74.1753, "RA_OF_ASC_NODE": 39.8508, "ARG_OF_PERICENTER": 237.345, "MEAN_ANOMALY": 226.7416, "EPHEMERIS_TYPE": 0, "CLASSIFICATION_TYPE": "U", "NORAD_CAT_ID": 33791, "ELEMENT_SET_NO": 999, "REV_AT_EPOCH": 88034, "BSTAR": 0.0013263828, "MEAN_MOTION_DOT": 4.454e-05, "MEAN_MOTION_DDOT": 0}, "tle": {"line1": "1 33791U 93036AG  25345.50717912  .00004454  00000+0  13264-2 0  9999", "line2": "2 33791  74.1753  39.8508 0030544 237.3450 226.7416 14.43114527880348"}}, "geometry": {"type": "Point", "coordinates": [42.37606369017715, 13.899036575627743]}}, {"type": "Feature", "properties": {"norad_id": 33792, "name": "COSMOS 2251 DEB", "group": "cosmos-2251-debris", "lat": -29.77512806379576, "lon": 175.52222891483086, "alt_km": 1391.7226598071811, "timestamp": "2025-12-12T07:43:20.908165+00:00", "meta": {"OBJECT_NAME": "COSMOS 2251 DEB", "OBJECT_ID": "1993-036AH", "EPOCH": "2025-12-11T23:39:56.382336", "MEAN_MOTION": 13.45820625, "ECCENTRICITY": 0.04270366, "INCLINATION": 73.9009, "RA_OF_ASC_NODE": 346.5478, "ARG_OF_PERICENTER": 51.3398, "MEAN_ANOMALY": 332.1261, "EPHEMERIS_TYPE": 0, "CLASSIFICATION_TYPE": "U", "NORAD_CAT_ID": 33792, "ELEMENT_SET_NO": 999, "REV_AT_EPOCH": 82432, "BSTAR": 0.0010873901, "MEAN_MOTION_DOT": 1.107e-05, "MEAN_MOTION_DDOT": 0}, "tle": {"line1": "1 33792U 93036AH  25345.98606924  .00001107  00000+0  10874-2 0  9998", "line2": "2 33792  73.9009 346.5478 0427036  51.3398 332.1261 13.45820625824325"}}, "geometry": {"type": "Point", "coordinates": [175.52222891483086, -29.77512806379576]}}, {"type": "Feature", "properties": {"norad_id": 33793, "name": "COSMOS 2251 DEB", "group": "cosmos-2251-debris", "lat": -70.60626830560629, "lon": 95.98122100150731, "alt_km": 753.2186608751481, "timestamp": "2025-12-12T07:43:20.908181+00:00", "meta": {"OBJECT_NAME": "COSMOS 2251 DEB", "OBJECT_ID": "1993-036AJ", "EPOCH": "2025-12-11T20:52:37.221600", "MEAN_MOTION": 14.27717805, "ECCENTRICITY": 0.00784863, "INCLINATION": 73.9807, "RA_OF_ASC_NODE": 151.4986, "ARG_OF_PERICENTER": 301.7685, "MEAN_ANOMALY": 177.9026, "EPHEMERIS_TYPE": 0, "CLASSIFICATION_TYPE": "U", "NORAD_CAT_ID": 33793, "ELEMENT_SET_NO": 999, "REV_AT_EPOCH": 87194, "BSTAR": 0.0010874682, "MEAN_MOTION_DOT": 2.747e-05, "MEAN_MOTION_DDOT": 0}, "tle": {"line1": "1 33793U 93036AJ  25345.86987525  .00002747  00000+0  10875-2 0  9997", "line2": "2 33793  73.9807 151.4986 0078486 301.7685 177.9026 14.27717805871941"}}, "geometry": {"type": "Point", "coordinates": [95.98122100150731, -70.60626830560629]}}, {"type": "Feature", "properties": {"norad_id": 33795, "name": "COSMOS 2251 DEB", "group": "cosmos-2251-debris", "lat": 64.22633774830861, "lon": -138.77559210444545, "alt_km": 529.3961614537748, "timestamp": "2025-12-12T07:43:20.908214+00:00", "meta": {"OBJECT_NAME": "COSMOS 2251 DEB", "OBJECT_ID": "1993-036AL", "EPOCH": "2025-12-11T09:11:54.284352", "MEAN_MOTION": 15.05443886, "ECCENTRICITY": 0.00316691, "INCLINATION": 74.0321, "RA_OF_ASC_NODE": 79.5186, "ARG_OF_PERICENTER": 163.3792, "MEAN_ANOMALY": 263.1079, "EPHEMERIS_TYPE": 0, "CLASSIFICATION_TYPE": "U", "NORAD_CAT_ID": 33795, "ELEMENT_SET_NO": 999, "REV_AT_EPOCH": 90001, "BSTAR": 0.0026255739, "MEAN_MOTION_DOT": 0.00038301, "MEAN_MOTION_DDOT": 0}, "tle": {"line1": "1 33795U 93036AL  25345.38326718  .00038301  00000+0  26256-2 0  9992", "line2": "2 33795  74.0321  79.5186 0031669 163.3792 263.1079 15.05443886900010"}}, "geometry": {"type": "Point", "coordinates": [-138.77559210444545, 64.22633774830861]}}, {"type": "Feature", "properties": {"norad_id": 33797, "name": "COSMOS 2251 DEB", "group": "cosmos-2251-debris", "lat": 1.1706998128461916, "lon": 36.088972388452405, "alt_km": 725.5364400277895, "timestamp": "2025-12-12T07:43:20.908232+00:00", "meta": {"OBJECT_NAME": "COSMOS 2251 DEB", "OBJECT_ID": "1993-036AN", "EPOCH": "2025-12-11T14:17:06.436032", "MEAN_MOTION": 14.57841143, "ECCENTRICITY": 0.00607441, "INCLINATION": 74.0478, "RA_OF_ASC_NODE": 37.1342, "ARG_OF_PERICENTER": 125.3903, "MEAN_ANOMALY": 24.9586, "EPHEMERIS_TYPE": 0, "CLASSIFICATION_TYPE": "U", "NORAD_CAT_ID": 33797, "ELEMENT_SET_NO": 999, "REV_AT_EPOCH": 88968, "BSTAR": 0.00064956369, "MEAN_MOTION_DOT": 3.022e-05, "MEAN_MOTION_DDOT": 0}, "tle": {"line1": "1 33797U 93036AN  25345.59521338  .00003022  00000+0  64956-3 0  9994", "line2": "2 33797  74.0478  37.1342 0060744 125.3903  24.9586 14.57841143889686"}}, "geometry": {"type": "Point", "coordinates": [36.088972388452405, 1.1706998128461916]}}, {"type": "Feature", "properties": {"norad_id": 33798, "name": "COSMOS 2251 DEB", "group": "cosmos-2251-debris", "lat": -71.81812060875819, "lon": 17.379306506183585, "alt_km": 684.4571038800404, "timestamp": "2025-12-12T07:43:20.908244+00:00", "meta": {"OBJECT_NAME": "COSMOS 2251 DEB", "OBJECT_ID": "1993-036AP", "EPOCH": "2025-12-11T21:08:42.243936", "MEAN_MOTION": 14.44612681, "ECCENTRICITY": 0.00924908, "INCLINATION": 74.028, "RA_OF_ASC_NODE": 137.5046, "ARG_OF_PERICENTER": 259.0614, "MEAN_ANOMALY": 230.9676, "EPHEMERIS_TYPE": 0, "CLASSIFICATION_TYPE": "U", "NORAD_CAT_ID": 33798, "ELEMENT_SET_NO": 999, "REV_AT_EPOCH": 88581, "BSTAR": 0.00027031102, "MEAN_MOTION_DOT": 9.56e-06, "MEAN_MOTION_DDOT": 0}, "tle": {"line1": "1 33798U 93036AP  25345.88104449  .00000956  00000+0  27031-3 0  9993", "line2": "2 33798  74.0280 137.5046 0092490 259.0614 230.9676 14.44612681885810"}}, "geometry": {"type": "Point", "coordinates": [17.379306506183585, -71.81812060875819]}}]}